ORBCOMM FM115 [+]       
1 41186U 15081H   23311.29482943  .00002208  00000+0  49022-3 0  9997
2 41186  47.0000 309.9145 0001522 267.9901  92.0811 14.60075727421791
ORBCOMM FM108 [+]       
1 41187U 15081J   23311.43990202  .00003004  00000+0  71294-3 0  9997
2 41187  47.0055 357.7329 0001855 165.3082 194.7857 14.56037304421083
ORBCOMM FM117 [+]       
1 41188U 15081K   23311.40575983  .00002906  00000+0  69127-3 0  9992
2 41188  47.0017 356.8510 0002600 171.9096 188.1831 14.56020740421121
ORBCOMM FM116 [+]       
1 41189U 15081L   23311.39541577  .00001834  00000+0  45016-3 0  9993
2 41189  47.0016  86.7049 0002868 241.2199 118.8398 14.56022495419931
